$$SOE
2459580.500000000, A.D. 2022-Jan-01 00:00:00.0000, 9.969520244386350E+07, 2.813190764694166E+08, -1.021839635110790E+07,
2459587.500000000, A.D. 2022-Jan-08 00:00:00.0000, 8.690324208007789E+07, 2.864603372938701E+08, -9.473490181298256E+06,
2459594.500000000, A.D. 2022-Jan-15 00:00:00.0000, 7.395422466587473E+07, 2.910840772792627E+08, -8.711466531294286E+06,
2459601.500000000, A.D. 2022-Jan-22 00:00:00.0000, 6.087281384631899E+07, 2.951869450156012E+08, -7.933851946503878E+06,
2459608.500000000, A.D. 2022-Jan-29 00:00:00.0000, 4.768354535733645E+07, 2.987670686799290E+08, -7.142184944404542E+06,
2459615.500000000, A.D. 2022-Feb-05 00:00:00.0000, 3.441071675012790E+07, 3.018240137979257E+08, -6.338008407804057E+06,
2459622.500000000, A.D. 2022-Feb-12 00:00:00.0000, 2.107828636949684E+07, 3.043587308839560E+08, -5.522862589836940E+06,
2459629.500000000, A.D. 2022-Feb-19 00:00:00.0000, 7.709781034629964E+06, 3.063734964912702E+08, -4.698278481855109E+06,
2459636.500000000, A.D. 2022-Feb-26 00:00:00.0000, -5.671788313145103E+06, 3.078718481474859E+08, -3.865771535945699E+06,
2459643.500000000, A.D. 2022-Mar-05 00:00:00.0000, -1.904400244937626E+07, 3.088585137781724E+08, -3.026835848447040E+06,
2459650.500000000, A.D. 2022-Mar-12 00:00:00.0000, -3.238510075887588E+07, 3.093393367629604E+08, -2.182938860547408E+06,
2459657.500000000, A.D. 2022-Mar-19 00:00:00.0000, -4.567403906231049E+07, 3.093211978245182E+08, -1.335516599699780E+06,
2459664.500000000, A.D. 2022-Mar-26 00:00:00.0000, -5.889053845466867E+07, 3.088119348570024E+08, -4.859694736068398E+05,
2459671.500000000, A.D. 2022-Apr-02 00:00:00.0000, -7.201512531813528E+07, 3.078202616736763E+08, 3.643413726391643E+05,
2459678.500000000, A.D. 2022-Apr-09 00:00:00.0000, -8.502916257875477E+07, 3.063556866240495E+08, 1.214097120295689E+06,
2459685.500000000, A.D. 2022-Apr-16 00:00:00.0000, -9.791487228344971E+07, 3.044284325824018E+08, 2.062023798058435E+06,
2459692.500000000, A.D. 2022-Apr-23 00:00:00.0000, -1.106553512718993E+08, 3.020493601409138E+08, 2.906894486861899E+06,
2459699.500000000, A.D. 2022-Apr-30 00:00:00.0000, -1.232345823638102E+08, 2.992298924042167E+08, 3.747531222441465E+06,
2459706.500000000, A.D. 2022-May-07 00:00:00.0000, -1.356374385845674E+08, 2.959819399332360E+08, 4.582806184716523E+06,
2459713.500000000, A.D. 2022-May-14 00:00:00.0000, -1.478496796597031E+08, 2.923178293084853E+08, 5.411642328260124E+06,
2459720.500000000, A.D. 2022-May-21 00:00:00.0000, -1.598579434266735E+08, 2.882502364210635E+08, 6.233013735803187E+06,
2459727.500000000, A.D. 2022-May-28 00:00:00.0000, -1.716497332473303E+08, 2.837921237833027E+08, 7.045945695587665E+06,
2459734.500000000, A.D. 2022-Jun-04 00:00:00.0000, -1.832134017354877E+08, 2.789566817135403E+08, 7.849514487277269E+06,
2459741.500000000, A.D. 2022-Jun-11 00:00:00.0000, -1.945381312233578E+08, 2.737572734945490E+08, 8.642846898328543E+06,
2459748.500000000, A.D. 2022-Jun-18 00:00:00.0000, -2.056139114659064E+08, 2.682073845539669E+08, 9.425119502210081E+06,
2459755.500000000, A.D. 2022-Jun-25 00:00:00.0000, -2.164315150561447E+08, 2.623205756141855E+08, 1.019555772543444E+07,
2459762.500000000, A.D. 2022-Jul-02 00:00:00.0000, -2.269824708815032E+08, 2.561104396802400E+08, 1.095343471635112E+07,
2459769.500000000, A.D. 2022-Jul-09 00:00:00.0000, -2.372590356553632E+08, 2.495905629382228E+08, 1.169807002301270E+07,
2459776.500000000, A.D. 2022-Jul-16 00:00:00.0000, -2.472541639640210E+08, 2.427744905113829E+08, 1.242882820017712E+07,
2459783.500000000, A.D. 2022-Jul-23 00:00:00.0000, -2.569614793754082E+08, 2.356756969945028E+08, 1.314511757764237E+07,
2459790.500000000, A.D. 2022-Jul-30 00:00:00.0000, -2.663752468307657E+08, 2.283075582405565E+08, 1.384638893009140E+07,
2459797.500000000, A.D. 2022-Aug-06 00:00:00.0000, -2.754903429808747E+08, 2.206833248543116E+08, 1.453213379152410E+07,
2459804.500000000, A.D. 2022-Aug-13 00:00:00.0000, -2.843022255246850E+08, 2.128160999429464E+08, 1.520188273282139E+07,
2459811.500000000, A.D. 2022-Aug-20 00:00:00.0000, -2.928069033262639E+08, 2.047188204222954E+08, 1.585520372077218E+07,
2459818.500000000, A.D. 2022-Aug-27 00:00:00.0000, -3.010009074115453E+08, 1.964042409540315E+08, 1.649170050671752E+07,
2459825.500000000, A.D. 2022-Sep-03 00:00:00.0000, -3.088812627366288E+08, 1.878849202043630E+08, 1.711101102507640E+07,
2459832.500000000, A.D. 2022-Sep-10 00:00:00.0000, -3.164454607512198E+08, 1.791732092537749E+08, 1.771280580565748E+07,
2459839.500000000, A.D. 2022-Sep-17 00:00:00.0000, -3.236914328161650E+08, 1.702812419675573E+08, 1.829678640535905E+07,
2459846.500000000, A.D. 2022-Sep-24 00:00:00.0000, -3.306175244803119E+08, 1.612209270925973E+08, 1.886268385636891E+07,
2459853.500000000, A.D. 2022-Oct-01 00:00:00.0000, -3.372224704254254E+08, 1.520039418793796E+08, 1.941025711245380E+07,
2459860.500000000, A.D. 2022-Oct-08 00:00:00.0000, -3.435053697098352E+08, 1.426417275805110E+08, 1.993929150301461E+07,
2459867.500000000, A.D. 2022-Oct-15 00:00:00.0000, -3.494656622729269E+08, 1.331454878667013E+08, 2.044959738189881E+07,
2459874.500000000, A.D. 2022-Oct-22 00:00:00.0000, -3.551031089044526E+08, 1.235261883338634E+08, 2.094100903622756E+07,
2459881.500000000, A.D. 2022-Oct-29 00:00:00.0000, -3.604177721888798E+08, 1.137945543808913E+08, 2.141338341626831E+07,
2459888.500000000, A.D. 2022-Nov-05 00:00:00.0000, -3.654099963140063E+08, 1.039610700787193E+08, 2.186659871905282E+07,
2459895.500000000, A.D. 2022-Nov-12 00:00:00.0000, -3.700803876908966E+08, 9.403597917999122E+07, 2.230055310981852E+07,
2459902.500000000, A.D. 2022-Nov-19 00:00:00.0000, -3.744297970870630E+08, 8.402928720803408E+07, 2.271516356914311E+07,
2459909.500000000, A.D. 2022-Nov-26 00:00:00.0000, -3.784593029873434E+08, 7.395076413174185E+07, 2.311036480892908E+07,
2459916.500000000, A.D. 2022-Dec-03 00:00:00.0000, -3.821701959874322E+08, 6.380994752623840E+07, 2.348610824045180E+07,
2459923.500000000, A.D. 2022-Dec-10 00:00:00.0000, -3.855639641429097E+08, 5.361614615659460E+07, 2.384236099091840E+07,
2459930.500000000, A.D. 2022-Dec-17 00:00:00.0000, -3.886422792159498E+08, 4.337844388577677E+07, 2.417910496311639E+07,
2459937.500000000, A.D. 2022-Dec-24 00:00:00.0000, -3.914069836760042E+08, 3.310570377448134E+07, 2.449633592147718E+07,
2459944.500000000, A.D. 2022-Dec-31 00:00:00.0000, -3.938600780614390E+08, 2.280657242061089E+07, 2.479406257914965E+07,
2459951.500000000, A.D. 2023-Jan-07 00:00:00.0000, -3.960037085430776E+08, 1.248948544697147E+07, 2.507230575195292E+07,
2459958.500000000, A.D. 2023-Jan-14 00:00:00.0000, -3.978401566206380E+08, 2.162674585031389E+06, 2.533109779858070E+07,
2459965.500000000, A.D. 2023-Jan-21 00:00:00.0000, -3.993718315637256E+08, -8.165826861694368E+06, 2.557048214533269E+07,
2459972.500000000, A.D. 2023-Jan-28 00:00:00.0000, -4.006012618967475E+08, -1.848818040670845E+07, 2.579051254158234E+07,
2459979.500000000, A.D. 2023-Feb-04 00:00:00.0000, -4.015310860993114E+08, -2.879673762633318E+07, 2.599125231099690E+07,
2459986.500000000, A.D. 2023-Feb-11 00:00:00.0000, -4.021640442810732E+08, -3.908403448718746E+07, 2.617277374551798E+07,
2459993.500000000, A.D. 2023-Feb-18 00:00:00.0000, -4.025029708632405E+08, -4.934278560671739E+07, 2.633515757895019E+07,
2460000.500000000, A.D. 2023-Feb-25 00:00:00.0000, -4.025507879749162E+08, -5.956587863152511E+07, 2.647849250144703E+07,
2460007.500000000, A.D. 2023-Mar-04 00:00:00.0000, -4.023104994328012E+08, -6.974636873391557E+07, 2.660287470574571E+07,
2460014.500000000, A.D. 2023-Mar-11 00:00:00.0000, -4.017851852467762E+08, -7.987747324294820E+07, 2.670840746124389E+07,
2460021.500000000, A.D. 2023-Mar-18 00:00:00.0000, -4.009779965765653E+08, -8.995256647395760E+07, 2.679520070623214E+07,
2460028.500000000, A.D. 2023-Mar-25 00:00:00.0000, -3.998921509095353E+08, -9.996517481592192E+07, 2.686337063444773E+07,
2460035.500000000, A.D. 2023-Apr-01 00:00:00.0000, -3.985309270091180E+08, -1.099089716933850E+08, 2.691303926778886E+07,
2460042.500000000, A.D. 2023-Apr-08 00:00:00.0000, -3.968976602235345E+08, -1.197777711867184E+08, 2.694433417027611E+07,
2460049.500000000, A.D. 2023-Apr-15 00:00:00.0000, -3.949957404675000E+08, -1.295655214257431E+08, 2.695738842571290E+07,
2460056.500000000, A.D. 2023-Apr-22 00:00:00.0000, -3.928286110473893E+08, -1.392663008176007E+08, 2.695234046245031E+07,
2460063.500000000, A.D. 2023-Apr-29 00:00:00.0000, -3.903997655768623E+08, -1.488743148624760E+08, 2.692933365764433E+07,
2460070.500000000, A.D. 2023-May-06 00:00:00.0000, -3.877127447243631E+08, -1.583838917803650E+08, 2.688851602714019E+07,
2460077.500000000, A.D. 2023-May-13 00:00:00.0000, -3.847711337515574E+08, -1.677894778470581E+08, 2.683004001650081E+07,
2460084.500000000, A.D. 2023-May-20 00:00:00.0000, -3.815785605942878E+08, -1.770856329346520E+08, 2.675406233057374E+07,
2460091.500000000, A.D. 2023-May-27 00:00:00.0000, -3.781386942801915E+08, -1.862670262876956E+08, 2.666074378055719E+07,
2460098.500000000, A.D. 2023-Jun-03 00:00:00.0000, -3.744552436121248E+08, -1.953284325080470E+08, 2.655024914439889E+07,
2460105.500000000, A.D. 2023-Jun-10 00:00:00.0000, -3.705319560784655E+08, -2.042647277605298E+08, 2.642274703595453E+07,
2460112.500000000, A.D. 2023-Jun-17 00:00:00.0000, -3.663726168854298E+08, -2.130708862591086E+08, 2.627840976842027E+07,
2460119.500000000, A.D. 2023-Jun-24 00:00:00.0000, -3.619810477772034E+08, -2.217419769797062E+08, 2.611741318595341E+07,
2460126.500000000, A.D. 2023-Jul-01 00:00:00.0000, -3.573611053796949E+08, -2.302731597743298E+08, 2.593993650697908E+07,
2460133.500000000, A.D. 2023-Jul-08 00:00:00.0000, -3.525166807333704E+08, -2.386596800664904E+08, 2.574616239919364E+07,
2460140.500000000, A.D. 2023-Jul-15 00:00:00.0000, -3.474517012849938E+08, -2.468968649590915E+08, 2.553627717153054E+07,
2460147.500000000, A.D. 2023-Jul-22 00:00:00.0000, -3.421701318117541E+08, -2.549801217899683E+08, 2.531047067519711E+07,
$$EOE